[Satellite]
VERSION=1.1
NAME=TERRESTAR-1
NICKNAME=TERRESTAR-1
TLE1=1 35496U 09035A   17185.48146546 -.00000060  00000-0  00000-0 0  9991
TLE2=2 35496   2.8799 344.7970 0002797 123.5473 236.6521  1.00272572 29392
